{
  "norad_id": 60106,
  "name": "STARLINK-32045",
  "history": [
    {
      "epoch": "2026-03-28T21:10:14.165760",
      "apogee_km": 476.05460324774594,
      "perigee_km": 474.41788065010405,
      "latitude_deg": 35.91291969766364,
      "longitude_deg": -84.71759359980933,
      "semi_major_axis_km": 6853.373241948925,
      "eccentricity": 0.00011941,
      "inclination_deg": 53.1604,
      "raan_deg": 308.068,
      "arg_perigee_deg": 81.975,
      "mean_anomaly_deg": 278.1386,
      "mean_motion_rev_day": 15.30192909
    }
  ]
}